[{"OBJECT_NAME":"KUIPER-00029","OBJECT_ID":"2025-088U","EPOCH":"2026-03-09T22:00:01.999584","MEAN_MOTION":14.81069355,"ECCENTRICITY":9.383e-5,"INCLINATION":51.9005,"RA_OF_ASC_NODE":89.6043,"ARG_OF_PERICENTER":137.8854,"MEAN_ANOMALY":294.3831,"EPHEMERIS_TYPE":0,"CLASSIFICATION_TYPE":"U","NORAD_CAT_ID":63742,"ELEMENT_SET_NO":999,"REV_AT_EPOCH":574,"BSTAR":0.002151491,"MEAN_MOTION_DOT":0.00016671,"MEAN_MOTION_DDOT":0},{"OBJECT_NAME":"PSLV DEB","OBJECT_ID":"2001-049CA","EPOCH":"2026-03-09T17:28:12.508320","MEAN_MOTION":14.85033154,"ECCENTRICITY":0.00154709,"INCLINATION":98.143,"RA_OF_ASC_NODE":123.0207,"ARG_OF_PERICENTER":62.0282,"MEAN_ANOMALY":58.2926,"EPHEMERIS_TYPE":0,"CLASSIFICATION_TYPE":"U","NORAD_CAT_ID":27130,"ELEMENT_SET_NO":999,"REV_AT_EPOCH":30363,"BSTAR":0.0002345935,"MEAN_MOTION_DOT":1.949e-5,"MEAN_MOTION_DDOT":0}]
